<!doctype html>

<html>

<head>

<title>TLE for NORAD Catalog Number 44269</title>

</head>

<body>

<pre>
STARLINK-57             
1 44269U 19029AL  19302.15045077  .00002604  00000-0  19827-3 0  9992
2 44269  52.9977 182.2311 0002156 102.4929 257.6300 15.05496851 23995

</pre>
	
</body>

</html>
